[{"OBJECT_NAME":"STARLINK-3918","OBJECT_ID":"2022-049AM","EPOCH":"2026-03-09T22:45:39.789216","MEAN_MOTION":15.08829321,"ECCENTRICITY":0.00014668,"INCLINATION":53.2175,"RA_OF_ASC_NODE":57.9599,"ARG_OF_PERICENTER":91.3288,"MEAN_ANOMALY":268.7872,"EPHEMERIS_TYPE":0,"CLASSIFICATION_TYPE":"U","NORAD_CAT_ID":52486,"ELEMENT_SET_NO":999,"REV_AT_EPOCH":21229,"BSTAR":1.4677513e-5,"MEAN_MOTION_DOT":-5.4e-7,"MEAN_MOTION_DDOT":0},{"OBJECT_NAME":"PEGASUS DEB","OBJECT_ID":"1994-029YW","EPOCH":"2026-03-09T00:40:55.338528","MEAN_MOTION":14.11561087,"ECCENTRICITY":0.04478792,"INCLINATION":81.4462,"RA_OF_ASC_NODE":93.0128,"ARG_OF_PERICENTER":250.1381,"MEAN_ANOMALY":105.1008,"EPHEMERIS_TYPE":0,"CLASSIFICATION_TYPE":"U","NORAD_CAT_ID":24594,"ELEMENT_SET_NO":999,"REV_AT_EPOCH":49351,"BSTAR":0.0015343637,"MEAN_MOTION_DOT":7.284e-5,"MEAN_MOTION_DDOT":0}]
